#aV2009  6 26  0  0   .00000000      96 DD+AD WGS84 FIT  NGA
## 1537 432000.00000000   900.00000000 55008  .0000000000000
+   31     1  2  3  4  6  7  8  9 10 11 12 13 14 15 16 17 18
+         19 20 21 22 23 24 25 26 27 28 29 30 31 32  0  0  0
+          0  0  0  0  0  0  0  0  0  0  0  0  0  0  0  0  0
+          0  0  0  0  0  0  0  0  0  0  0  0  0  0  0  0  0
+          0  0  0  0  0  0  0  0  0  0  0  0  0  0  0  0  0
++         0  0  0  0  0  0  0  0  0  0  0  0  0  0  0  0  0
++         0  0  0  0  0  0  0  0  0  0  0  0  0  0  0  0  0
++         0  0  0  0  0  0  0  0  0  0  0  0  0  0  0  0  0
++         0  0  0  0  0  0  0  0  0  0  0  0  0  0  0  0  0
++         0  0  0  0  0  0  0  0  0  0  0  0  0  0  0  0  0
%c cc cc ccc ccc cccc cccc cccc cccc ccccc ccccc ccccc ccccc
%c cc cc ccc ccc cccc cccc cccc cccc ccccc ccccc ccccc ccccc
%f  0.0000000  0.000000000  0.00000000000  0.000000000000000
%f  0.0000000  0.000000000  0.00000000000  0.000000000000000
%i    0    0    0    0      0      0      0      0         0
%i    0    0    0    0      0      0      0      0         0
/*      NGA, ST. LOUIS,MO.                                  
/*   EPHEMERIS COMPUTED FROM  3 DAYS OF DATA                
/* CCCCCCCCCCCCCCCCCCCCCCCCCCCCCCCCCCCCCCCCCCCCCCCCCCCCCCCCC
/* CCCCCCCCCCCCCCCCCCCCCCCCCCCCCCCCCCCCCCCCCCCCCCCCCCCCCCCCC
*  2009  6 26  9 30   .00000000                                                 
P  1 -16506.784705 -19887.432720  -6450.551769    -72.483340                    
V  1   7803.589847   3240.794677 -30284.763944       .047472                    
P  2  21969.269683 -13005.772995   6399.048622    157.618503                    
V  2   9103.789170    563.826750 -30127.804245       .013221                    
P  3 -10158.735299  21335.553449  11450.200631    411.789428                    
V  3  -2534.081449 -15445.210200  26185.247139       .051434                    
P  4  25831.998521  -5370.192344  -4592.655182   -148.954549                    
V  4  -4315.791684   4734.433930 -30337.589997      -.160833                    
P  6 -13605.926165  17355.730069  14946.054588    173.679518                    
V  6      7.165756 -18930.357210  22344.544009       .123647                    
P  7  14173.228199   9795.523718  20225.560564     16.360373                    
V  7 -23926.593861   9366.778078  12091.364598      -.007245                    
P  8  23943.061472   1361.404981  11904.375701   -209.262245                    
V  8 -14057.370692   5299.958587  27061.242359      -.014320                    
P  9   4182.762881 -16731.321103 -20838.554382     63.210971                    
V  9  23540.383964  -8330.728461  11876.540801       .021550                    
P 10  10596.547778 -10901.309392  21618.345320    -18.095250                    
V 10  20745.185050  18577.999729   -466.671378      -.005722                    
P 11   -195.051547  18444.833572 -19217.090365     -8.070172                    
V 11 -21819.983155  11077.553094  11334.032067      -.015712                    
P 12  -7446.332826 -20417.016300 -15288.494272   -260.453438                    
V 12  15875.993106  11406.528545 -22744.345352       .060083                    
P 13   7406.168381  18124.768461  17812.420457    300.208533                    
V 13  -6563.103160  21871.828641 -19389.856821       .007893                    
P 14 -14656.802979   -936.734844 -22002.538985    -89.079420                    
V 14   6045.342119 -27504.274273  -2957.634894       .057508                    
P 15   7404.803109 -25114.153890   4275.141725   -303.971740                    
V 15   1995.284935   5840.657804  31071.928418      -.029364                    
P 16 -14765.965673   6340.789040  21244.082176     38.486225                    
V 16 -19562.539484 -18287.306410  -7920.741268      -.035347                    
P 17  15044.937370   2308.875744 -21690.507840     66.672425                    
V 17  -5433.572895  27185.285030  -1059.863717       .022682                    
P 18 -20371.491720 -17301.062441  -1267.834994    -45.030892                    
V 18    691.282598  -3536.785980  31038.665904       .031680                    
P 19  -7978.519395  25124.240770   1794.804999     21.202679                    
V 19  -2473.069047  -2956.990824  31735.963852      -.013277                    
P 20   8985.823227  20673.015223 -14201.141389     78.926885                    
V 20 -15416.648714  -9349.722672 -23536.110925      -.010158                    
P 21 -17687.022112  -8515.686685  18427.852170      6.211894                    
V 21  21113.005425  -8551.233138  15920.861449      -.021503                    
P 22 -22143.226161  -8860.588642 -11610.878376    196.753691                    
V 22  -9065.786326 -12301.942929  26239.161183      -.008618                    
P 23    479.538445  25240.835585   7704.437052    390.196929                    
V 23  -4447.898396   9239.065074 -30089.028457      -.000382                    
P 24  -3182.847625 -15213.325415  21676.729196    199.783276                    
V 24  26137.295203  -7683.403215  -1311.406785       .029740                    
P 25   6683.226998  13627.580473  22135.232600    480.070811                    
V 25 -24715.149099  11506.609612    573.740446       .181413                    
P 26  -4551.134434 -21731.717405 -14746.078466     64.211135                    
V 26   5772.770513 -17016.050975  24698.464588       .004317                    
P 27  11701.589242 -16809.559632 -16234.087987     60.667457                    
V 27  20879.580835  -6775.633434  21177.019961       .030580                    
P 28  22068.522028  11507.055749  -9273.252747    -25.676059                    
V 28   7568.038367   9934.945333  28683.037821      -.001380                    
P 29  -7365.622578 -19806.117844  16222.807306     33.784166                    
V 29   6095.108269 -19544.983939 -21191.283996       .035817                    
P 30 -16422.929771 -19688.553671  -7466.121924    156.455145                    
V 30   8759.188631   3388.519787 -29606.160189       .028361                    
P 31 -25490.446420   7318.046293  -2306.301843    -62.945633                    
V 31   2213.863142  -3231.046808 -31753.524299      -.005474                    
P 32    189.609794  18651.014529 -18621.304508    241.407963                    
V 32 -18023.277712 -16445.877735 -16062.372311      -.057824                    
EOF
